CCSDS_OMM_VERS = 2.0
CREATION_DATE  = 
ORIGINATOR     = 

OBJECT_NAME    = STARLINK-36466
OBJECT_ID      = 2026-003AA
CENTER_NAME    = EARTH
REF_FRAME      = TEME
TIME_SYSTEM    = UTC
MEAN_ELEMENT_THEORY = SGP/SGP4

EPOCH          = 2026-02-04T20:00:00.999360
MEAN_MOTION    = 15.50601056
ECCENTRICITY   = .0001468
INCLINATION    = 42.9996
RA_OF_ASC_NODE = 53.5951
ARG_OF_PERICENTER = 265.6983
MEAN_ANOMALY   = 240.0155

EPHEMERIS_TYPE = 0
CLASSIFICATION_TYPE = U
NORAD_CAT_ID   = 67358
ELEMENT_SET_NO = 999
REV_AT_EPOCH   = 539
BSTAR          = -.1409E-2
MEAN_MOTION_DOT = -.82204E-3
MEAN_MOTION_DDOT = 0

CCSDS_OMM_VERS = 2.0
CREATION_DATE  = 
ORIGINATOR     = 

OBJECT_NAME    = STARLINK-36499
OBJECT_ID      = 2026-003AB
CENTER_NAME    = EARTH
REF_FRAME      = TEME
TIME_SYSTEM    = UTC
MEAN_ELEMENT_THEORY = SGP/SGP4

EPOCH          = 2026-02-04T20:00:00.999360
MEAN_MOTION    = 15.49976672
ECCENTRICITY   = .0001058
INCLINATION    = 42.9993
RA_OF_ASC_NODE = 53.5901
ARG_OF_PERICENTER = 262.8867
MEAN_ANOMALY   = 244.5529

EPHEMERIS_TYPE = 0
CLASSIFICATION_TYPE = U
NORAD_CAT_ID   = 67359
ELEMENT_SET_NO = 999
REV_AT_EPOCH   = 539
BSTAR          = -.41714E-1
MEAN_MOTION_DOT = -.2123391E-1
MEAN_MOTION_DDOT = 0

CCSDS_OMM_VERS = 2.0
CREATION_DATE  = 
ORIGINATOR     = 

OBJECT_NAME    = STARLINK-36469
OBJECT_ID      = 2026-003AC
CENTER_NAME    = EARTH
REF_FRAME      = TEME
TIME_SYSTEM    = UTC
MEAN_ELEMENT_THEORY = SGP/SGP4

EPOCH          = 2026-02-04T20:00:00.999360
MEAN_MOTION    = 15.50971908
ECCENTRICITY   = .0000932
INCLINATION    = 42.9992
RA_OF_ASC_NODE = 53.5844
ARG_OF_PERICENTER = 254.2815
MEAN_ANOMALY   = 255.1967

EPHEMERIS_TYPE = 0
CLASSIFICATION_TYPE = U
NORAD_CAT_ID   = 67360
ELEMENT_SET_NO = 999
REV_AT_EPOCH   = 539
BSTAR          = -.23198E-1
MEAN_MOTION_DOT = -.1252262E-1
MEAN_MOTION_DDOT = 0

CCSDS_OMM_VERS = 2.0
CREATION_DATE  = 
ORIGINATOR     = 

OBJECT_NAME    = STARLINK-35306
OBJECT_ID      = 2026-003AD
CENTER_NAME    = EARTH
REF_FRAME      = TEME
TIME_SYSTEM    = UTC
MEAN_ELEMENT_THEORY = SGP/SGP4

EPOCH          = 2026-02-04T20:00:00.999360
MEAN_MOTION    = 15.50598453
ECCENTRICITY   = .0001632
INCLINATION    = 42.9998
RA_OF_ASC_NODE = 53.5796
ARG_OF_PERICENTER = 274.5218
MEAN_ANOMALY   = 236.9388

EPHEMERIS_TYPE = 0
CLASSIFICATION_TYPE = U
NORAD_CAT_ID   = 67361
ELEMENT_SET_NO = 999
REV_AT_EPOCH   = 533
BSTAR          = -.1242E-2
MEAN_MOTION_DOT = -.72585E-3
MEAN_MOTION_DDOT = 0

CCSDS_OMM_VERS = 2.0
CREATION_DATE  = 
ORIGINATOR     = 

OBJECT_NAME    = STARLINK-36428
OBJECT_ID      = 2026-003AE
CENTER_NAME    = EARTH
REF_FRAME      = TEME
TIME_SYSTEM    = UTC
MEAN_ELEMENT_THEORY = SGP/SGP4

EPOCH          = 2026-02-04T20:00:00.999360
MEAN_MOTION    = 15.50594371
ECCENTRICITY   = .0001637
INCLINATION    = 42.9998
RA_OF_ASC_NODE = 53.5742
ARG_OF_PERICENTER = 269.7452
MEAN_ANOMALY   = 243.6395

EPHEMERIS_TYPE = 0
CLASSIFICATION_TYPE = U
NORAD_CAT_ID   = 67362
ELEMENT_SET_NO = 999
REV_AT_EPOCH   = 539
BSTAR          = -.11907E-2
MEAN_MOTION_DOT = -.69613E-3
MEAN_MOTION_DDOT = 0

CCSDS_OMM_VERS = 2.0
CREATION_DATE  = 
ORIGINATOR     = 

OBJECT_NAME    = TWILIGHT A
OBJECT_ID      = 2026-004A
CENTER_NAME    = EARTH
REF_FRAME      = TEME
TIME_SYSTEM    = UTC
MEAN_ELEMENT_THEORY = SGP/SGP4

EPOCH          = 2026-02-04T20:08:52.086336
MEAN_MOTION    = 14.87029385
ECCENTRICITY   = .0008004
INCLINATION    = 97.7999
RA_OF_ASC_NODE = 36.5680
ARG_OF_PERICENTER = 206.3482
MEAN_ANOMALY   = 153.7328

EPHEMERIS_TYPE = 0
CLASSIFICATION_TYPE = U
NORAD_CAT_ID   = 67363
ELEMENT_SET_NO = 999
REV_AT_EPOCH   = 360
BSTAR          = .59293E-3
MEAN_MOTION_DOT = .5264E-4
MEAN_MOTION_DDOT = 0

CCSDS_OMM_VERS = 2.0
CREATION_DATE  = 
ORIGINATOR     = 

OBJECT_NAME    = TWILIGHT B
OBJECT_ID      = 2026-004B
CENTER_NAME    = EARTH
REF_FRAME      = TEME
TIME_SYSTEM    = UTC
MEAN_ELEMENT_THEORY = SGP/SGP4

EPOCH          = 2026-02-04T20:06:35.221824
MEAN_MOTION    = 14.87158139
ECCENTRICITY   = .0007946
INCLINATION    = 97.8002
RA_OF_ASC_NODE = 36.5704
ARG_OF_PERICENTER = 201.6607
MEAN_ANOMALY   = 158.4274

EPHEMERIS_TYPE = 0
CLASSIFICATION_TYPE = U
NORAD_CAT_ID   = 67364
ELEMENT_SET_NO = 999
REV_AT_EPOCH   = 361
BSTAR          = .66113E-3
MEAN_MOTION_DOT = .5895E-4
MEAN_MOTION_DDOT = 0

CCSDS_OMM_VERS = 2.0
CREATION_DATE  = 
ORIGINATOR     = 

OBJECT_NAME    = TWILIGHT C
OBJECT_ID      = 2026-004C
CENTER_NAME    = EARTH
REF_FRAME      = TEME
TIME_SYSTEM    = UTC
MEAN_ELEMENT_THEORY = SGP/SGP4

EPOCH          = 2026-02-04T18:29:12.526368
MEAN_MOTION    = 14.87179572
ECCENTRICITY   = .0007261
INCLINATION    = 97.7985
RA_OF_ASC_NODE = 36.5011
ARG_OF_PERICENTER = 209.3142
MEAN_ANOMALY   = 150.7667

EPHEMERIS_TYPE = 0
CLASSIFICATION_TYPE = U
NORAD_CAT_ID   = 67365
ELEMENT_SET_NO = 999
REV_AT_EPOCH   = 360
BSTAR          = .76184E-3
MEAN_MOTION_DOT = .6805E-4
MEAN_MOTION_DDOT = 0

CCSDS_OMM_VERS = 2.0
CREATION_DATE  = 
ORIGINATOR     = 

OBJECT_NAME    = TWILIGHT D
OBJECT_ID      = 2026-004D
CENTER_NAME    = EARTH
REF_FRAME      = TEME
TIME_SYSTEM    = UTC
MEAN_ELEMENT_THEORY = SGP/SGP4

EPOCH          = 2026-02-04T18:28:50.446848
MEAN_MOTION    = 14.87137234
ECCENTRICITY   = .0008129
INCLINATION    = 97.8034
RA_OF_ASC_NODE = 36.5102
ARG_OF_PERICENTER = 195.6832
MEAN_ANOMALY   = 164.4133

EPHEMERIS_TYPE = 0
CLASSIFICATION_TYPE = U
NORAD_CAT_ID   = 67366
ELEMENT_SET_NO = 999
REV_AT_EPOCH   = 360
BSTAR          = .43857E-3
MEAN_MOTION_DOT = .3889E-4
MEAN_MOTION_DDOT = 0

CCSDS_OMM_VERS = 2.0
CREATION_DATE  = 
ORIGINATOR     = 

OBJECT_NAME    = TWILIGHT E
OBJECT_ID      = 2026-004E
CENTER_NAME    = EARTH
REF_FRAME      = TEME
TIME_SYSTEM    = UTC
MEAN_ELEMENT_THEORY = SGP/SGP4

EPOCH          = 2026-02-04T20:03:24.670080
MEAN_MOTION    = 14.87301724
ECCENTRICITY   = .0006978
INCLINATION    = 97.7966
RA_OF_ASC_NODE = 36.5674
ARG_OF_PERICENTER = 208.4921
MEAN_ANOMALY   = 151.5915

EPHEMERIS_TYPE = 0
CLASSIFICATION_TYPE = U
NORAD_CAT_ID   = 67367
ELEMENT_SET_NO = 999
REV_AT_EPOCH   = 361
BSTAR          = .67623E-3
MEAN_MOTION_DOT = .6052E-4
MEAN_MOTION_DDOT = 0

CCSDS_OMM_VERS = 2.0
CREATION_DATE  = 
ORIGINATOR     = 

OBJECT_NAME    = TWILIGHT F
OBJECT_ID      = 2026-004F
CENTER_NAME    = EARTH
REF_FRAME      = TEME
TIME_SYSTEM    = UTC
MEAN_ELEMENT_THEORY = SGP/SGP4

EPOCH          = 2026-02-04T18:25:40.421280
MEAN_MOTION    = 14.87325855
ECCENTRICITY   = .0007468
INCLINATION    = 97.8026
RA_OF_ASC_NODE = 36.5124
ARG_OF_PERICENTER = 196.7476
MEAN_ANOMALY   = 163.3495

EPHEMERIS_TYPE = 0
CLASSIFICATION_TYPE = U
NORAD_CAT_ID   = 67368
ELEMENT_SET_NO = 999
REV_AT_EPOCH   = 360
BSTAR          = .64361E-3
MEAN_MOTION_DOT = .5761E-4
MEAN_MOTION_DDOT = 0

CCSDS_OMM_VERS = 2.0
CREATION_DATE  = 
ORIGINATOR     = 

OBJECT_NAME    = TWILIGHT G
OBJECT_ID      = 2026-004G
CENTER_NAME    = EARTH
REF_FRAME      = TEME
TIME_SYSTEM    = UTC
MEAN_ELEMENT_THEORY = SGP/SGP4

EPOCH          = 2026-02-04T20:01:42.356928
MEAN_MOTION    = 14.87279813
ECCENTRICITY   = .0006371
INCLINATION    = 97.7958
RA_OF_ASC_NODE = 36.5679
ARG_OF_PERICENTER = 210.5093
MEAN_ANOMALY   = 149.5753

EPHEMERIS_TYPE = 0
CLASSIFICATION_TYPE = U
NORAD_CAT_ID   = 67369
ELEMENT_SET_NO = 999
REV_AT_EPOCH   = 361
BSTAR          = .34757E-3
MEAN_MOTION_DOT = .3081E-4
MEAN_MOTION_DDOT = 0

