STARLINK-36466          
1 67358U 26003AA  26035.83334490 -.00082204  00000+0 -14090-2 0  9993
2 67358  42.9996  53.5951 0001468 265.6983 240.0155 15.50601056  5399
STARLINK-36499          
1 67359U 26003AB  26035.83334490 -.02123391  00000+0 -41714-1 0  9991
2 67359  42.9993  53.5901 0001058 262.8867 244.5529 15.49976672  5398
STARLINK-36469          
1 67360U 26003AC  26035.83334490 -.01252262  00000+0 -23198-1 0  9998
2 67360  42.9992  53.5844 0000932 254.2815 255.1967 15.50971908  5396
STARLINK-35306          
1 67361U 26003AD  26035.83334490 -.00072585  00000+0 -12420-2 0  9993
2 67361  42.9998  53.5796 0001632 274.5218 236.9388 15.50598453  5337
STARLINK-36428          
1 67362U 26003AE  26035.83334490 -.00069613  00000+0 -11907-2 0  9991
2 67362  42.9998  53.5742 0001637 269.7452 243.6395 15.50594371  5394
TWILIGHT A              
1 67363U 26004A   26035.83949174  .00005264  00000+0  59293-3 0  9995
2 67363  97.7999  36.5680 0008004 206.3482 153.7328 14.87029385  3607
TWILIGHT B              
1 67364U 26004B   26035.83790766  .00005895  00000+0  66113-3 0  9996
2 67364  97.8002  36.5704 0007946 201.6607 158.4274 14.87158139  3615
TWILIGHT C              
1 67365U 26004C   26035.77028387  .00006805  00000+0  76184-3 0  9994
2 67365  97.7985  36.5011 0007261 209.3142 150.7667 14.87179572  3609
TWILIGHT D              
1 67366U 26004D   26035.77002832  .00003889  00000+0  43857-3 0  9992
2 67366  97.8034  36.5102 0008129 195.6832 164.4133 14.87137234  3603
TWILIGHT E              
1 67367U 26004E   26035.83570220  .00006052  00000+0  67623-3 0  9993
2 67367  97.7966  36.5674 0006978 208.4921 151.5915 14.87301724  3616
TWILIGHT F              
1 67368U 26004F   26035.76782895  .00005761  00000+0  64361-3 0  9991
2 67368  97.8026  36.5124 0007468 196.7476 163.3495 14.87325855  3608
TWILIGHT G              
1 67369U 26004G   26035.83451802  .00003081  00000+0  34757-3 0  9990
2 67369  97.7958  36.5679 0006371 210.5093 149.5753 14.87279813  3615
